STARLINK-34592          
1 64746U 25144Y   26068.52569976  .00024323  00000+0  83034-3 0  9998
2 64746  53.1605 169.2442 0001438 152.0048 208.1030 15.30213038 39869
KUIPER-00208            
1 67775U 26030M   26068.67231509  .00043852  00000+0  13883-2 0  9994
2 67775  51.8846 219.6993 0015525  57.3146 302.9333 15.32208734  5080
